[
  {
    "locationId": 1,
    "zip": 79901,
    "State": "Texas",
    "City": "El Paso",
    "Street": "040 Dryden Road",
    "apt": 68
  },
  {
    "locationId": 2,
    "zip": 70112,
    "State": "Louisiana",
    "City": "New Orleans",
    "Street": "6229 East Alley",
    "apt": 68
  },
  {
    "locationId": 3,
    "zip": 44101,
    "State": "Ohio",
    "City": "Cleveland",
    "Street": "47495 Rutledge Pass",
    "apt": 75
  },
  {
    "locationId": 4,
    "zip": 44701,
    "State": "Ohio",
    "City": "Canton",
    "Street": "321 Fremont Circle",
    "apt": 92
  },
  {
    "locationId": 5,
    "zip": 91401,
    "State": "California",
    "City": "Van Nuys",
    "Street": "4490 Jenna Center",
    "apt": 82
  },
  {
    "locationId": 6,
    "zip": 12201,
    "State": "New York",
    "City": "Albany",
    "Street": "95 Longview Lane",
    "apt": 14
  },
  {
    "locationId": 7,
    "zip": 27601,
    "State": "North Carolina",
    "City": "Raleigh",
    "Street": "02 Quincy Pass",
    "apt": 20
  },
  {
    "locationId": 8,
    "zip": 91601,
    "State": "California",
    "City": "North Hollywood",
    "Street": "769 1st Court",
    "apt": 96
  },
  {
    "locationId": 9,
    "zip": 24001,
    "State": "Virginia",
    "City": "Roanoke",
    "Street": "05271 Marcy Road",
    "apt": 35
  },
  {
    "locationId": 10,
    "zip": 20810,
    "State": "Maryland",
    "City": "Bethesda",
    "Street": "0 Becker Avenue",
    "apt": 74
  },
  {
    "locationId": 11,
    "zip": 73101,
    "State": "Oklahoma",
    "City": "Oklahoma City",
    "Street": "9187 Walton Terrace",
    "apt": 51
  },
  {
    "locationId": 12,
    "zip": 80301,
    "State": "Colorado",
    "City": "Boulder",
    "Street": "44 Bunker Hill Alley",
    "apt": 2
  },
  {
    "locationId": 13,
    "zip": 30030,
    "State": "Georgia",
    "City": "Decatur",
    "Street": "40 Coolidge Trail",
    "apt": 94
  },
  {
    "locationId": 14,
    "zip": 34286,
    "State": "Florida",
    "City": "North Port",
    "Street": "740 Vernon Pass",
    "apt": 7
  },
  {
    "locationId": 15,
    "zip": 74101,
    "State": "Oklahoma",
    "City": "Tulsa",
    "Street": "8530 Moulton Crossing",
    "apt": 63
  },
  {
    "locationId": 16,
    "zip": 66601,
    "State": "Kansas",
    "City": "Topeka",
    "Street": "90 Troy Court",
    "apt": 90
  },
  {
    "locationId": 17,
    "zip": 73101,
    "State": "Oklahoma",
    "City": "Oklahoma City",
    "Street": "0389 Doe Crossing Alley",
    "apt": 6
  },
  {
    "locationId": 18,
    "zip": 77501,
    "State": "Texas",
    "City": "Pasadena",
    "Street": "7676 Pierstorff Center",
    "apt": 24
  },
  {
    "locationId": 19,
    "zip": 33601,
    "State": "Florida",
    "City": "Tampa",
    "Street": "44359 Barby Avenue",
    "apt": 38
  },
  {
    "locationId": 20,
    "zip": 30301,
    "State": "Georgia",
    "City": "Atlanta",
    "Street": "084 Eastlawn Junction",
    "apt": 78
  },
  {
    "locationId": 21,
    "zip": 19101,
    "State": "Pennsylvania",
    "City": "Philadelphia",
    "Street": "64 Brown Court",
    "apt": 16
  },
  {
    "locationId": 22,
    "zip": 67001,
    "State": "Connecticut",
    "City": "Waterbury",
    "Street": "2 Sutherland Avenue",
    "apt": 47
  },
  {
    "locationId": 23,
    "zip": 34201,
    "State": "Florida",
    "City": "Sarasota",
    "Street": "54 Dryden Alley",
    "apt": 2
  },
  {
    "locationId": 24,
    "zip": 27101,
    "State": "North Carolina",
    "City": "Winston Salem",
    "Street": "42 Loeprich Circle",
    "apt": 90
  },
  {
    "locationId": 25,
    "zip": 40201,
    "State": "Kentucky",
    "City": "Louisville",
    "Street": "7 Corry Park",
    "apt": 33
  },
  {
    "locationId": 26,
    "zip": 76201,
    "State": "Texas",
    "City": "Denton",
    "Street": "75113 Village Place",
    "apt": 30
  },
  {
    "locationId": 27,
    "zip": 17401,
    "State": "Pennsylvania",
    "City": "York",
    "Street": "968 Grim Way",
    "apt": 90
  },
  {
    "locationId": 28,
    "zip": 33401,
    "State": "Florida",
    "City": "West Palm Beach",
    "Street": "6172 Lakewood Gardens Trail",
    "apt": 92
  },
  {
    "locationId": 29,
    "zip": 76101,
    "State": "Texas",
    "City": "Fort Worth",
    "Street": "2052 Claremont Park",
    "apt": 76
  },
  {
    "locationId": 30,
    "zip": 28201,
    "State": "North Carolina",
    "City": "Charlotte",
    "Street": "513 Monterey Park",
    "apt": 79
  },
  {
    "locationId": 31,
    "zip": 63101,
    "State": "Missouri",
    "City": "Saint Louis",
    "Street": "8 Birchwood Avenue",
    "apt": 26
  },
  {
    "locationId": 32,
    "zip": 44101,
    "State": "Ohio",
    "City": "Cleveland",
    "Street": "95502 Derek Parkway",
    "apt": 15
  },
  {
    "locationId": 33,
    "zip": 99501,
    "State": "Alaska",
    "City": "Anchorage",
    "Street": "4 Burrows Place",
    "apt": 80
  },
  {
    "locationId": 34,
    "zip": 40501,
    "State": "Kentucky",
    "City": "Lexington",
    "Street": "22 Rigney Trail",
    "apt": 48
  },
  {
    "locationId": 35,
    "zip": 64101,
    "State": "Missouri",
    "City": "Kansas City",
    "Street": "359 Sloan Park",
    "apt": 47
  },
  {
    "locationId": 36,
    "zip": 31401,
    "State": "Georgia",
    "City": "Savannah",
    "Street": "92929 Carey Drive",
    "apt": 97
  },
  {
    "locationId": 37,
    "zip": 77001,
    "State": "Texas",
    "City": "Houston",
    "Street": "5656 Thompson Avenue",
    "apt": 33
  },
  {
    "locationId": 38,
    "zip": 83701,
    "State": "Idaho",
    "City": "Boise",
    "Street": "25263 Lillian Crossing",
    "apt": 67
  },
  {
    "locationId": 39,
    "zip": 20701,
    "State": "Maryland",
    "City": "Laurel",
    "Street": "643 Rutledge Court",
    "apt": 89
  },
  {
    "locationId": 40,
    "zip": 94601,
    "State": "California",
    "City": "Oakland",
    "Street": "304 Scott Plaza",
    "apt": 94
  }
]
